0 CZ-4 DEB
1 31139U 03049E   13281.34246709  .00001197  00000-0  34507-3 0  9005
2 31139 098.1116 301.2459 0100286 070.9921 345.3116 14.43468265340704
0 CZ-4 DEB
1 31139U 03049E   13283.85077781  .00001326  00000-0  38096-3 0  9017
2 31139 098.1113 303.6364 0100148 063.4224 059.6801 14.43480559341068
0 CZ-4 DEB
1 31139U 03049E   13285.86081138  .00001355  00000-0  38918-3 0  9027
2 31139 098.1108 305.5521 0100013 057.3517 064.8341 14.43484422341358
0 CZ-4 DEB
1 31139U 03049E   13287.87119333  .00002268  00000-0  64313-3 0  9032
2 31139 098.1103 307.4678 0099876 051.2755 071.8385 14.43492305341645
0 CZ-4 DEB
1 31139U 03049E   13289.88104405  .00001772  00000-0  50533-3 0  9048
2 31139 098.1101 309.3830 0099736 045.1877 076.1609 14.43500332341935
0 CZ-4 DEB
1 31139U 03049E   13292.01234225  .00001857  00000-0  52906-3 0  9052
2 31139 098.1101 311.4136 0099582 038.7251 351.6653 14.43507477342243
0 CZ-4 DEB
1 31139U 03049E   13294.02243345  .00001953  00000-0  55575-3 0  9061
2 31139 098.1102 313.3288 0099428 032.6322 357.3527 14.43515600342536
